{"type": "FeatureCollection", "features": [ {"type": "Feature", "properties": {"norad_id": 40664, "name": "SKY MEXICO-1", "group": "intelsat", "lat": -0.026470627639247526, "lon": -122.32641950002257, "alt_km": 35780.0752648762, "timestamp": "2025-12-25T14:48:24.469300+00:00", "meta": {"OBJECT_NAME": "SKY MEXICO-1", "OBJECT_ID": "2015-026B", "EPOCH": "2025-12-25T05:41:31.709184", "MEAN_MOTION": 1.00269983, "ECCENTRICITY": 0.00025526, "INCLINATION": 0.0152, "RA_OF_ASC_NODE": 8.8058, "ARG_OF_PERICENTER": 281.657, "MEAN_ANOMALY": 170.1492, "EPHEMERIS_TYPE": 0, "CLASSIFICATION_TYPE": "U", "NORAD_CAT_ID": 40664, "ELEMENT_SET_NO": 999, "REV_AT_EPOCH": 3871, "BSTAR": 0, "MEAN_MOTION_DOT": -2.13e-06, "MEAN_MOTION_DDOT": 0}, "tle": {"line1": "1 40664U 15026B   25359.23717256 -.00000213  00000+0  00000+0 0  9996", "line2": "2 40664   0.0152   8.8058 0002552 281.6570 170.1492  1.00269983 38713"}}, "geometry": {"type": "Point", "coordinates": [-122.32641950002257, -0.026470627639247526]}}, {"type": "Feature", "properties": {"norad_id": 40874, "name": "INTELSAT 34 (IS-34)", "group": "intelsat", "lat": -0.023422531005075825, "lon": -99.0256759478438, "alt_km": 35787.01618378171, "timestamp": "2025-12-25T14:48:24.469310+00:00", "meta": {"OBJECT_NAME": "INTELSAT 34 (IS-34)", "OBJECT_ID": "2015-039A", "EPOCH": "2025-12-25T06:11:50.951040", "MEAN_MOTION": 1.00269695, "ECCENTRICITY": 5.858e-05, "INCLINATION": 0.01, "RA_OF_ASC_NODE": 325.014, "ARG_OF_PERICENTER": 199.0452, "MEAN_ANOMALY": 327.4248, "EPHEMERIS_TYPE": 0, "CLASSIFICATION_TYPE": "U", "NORAD_CAT_ID": 40874, "ELEMENT_SET_NO": 999, "REV_AT_EPOCH": 3788, "BSTAR": 0, "MEAN_MOTION_DOT": -2.64e-06, "MEAN_MOTION_DDOT": 0}, "tle": {"line1": "1 40874U 15039A   25359.25822860 -.00000264  00000+0  00000+0 0  9999", "line2": "2 40874   0.0100 325.0140 0000585 199.0452 327.4248  1.00269695 37883"}}, "geometry": {"type": "Point", "coordinates": [-99.0256759478438, -0.023422531005075825]}}, {"type": "Feature", "properties": {"norad_id": 41581, "name": "INTELSAT 31 (IS-31)", "group": "intelsat", "lat": -0.016512977989487077, "lon": -138.59829185108762, "alt_km": 35778.95569147796, "timestamp": "2025-12-25T14:48:24.469320+00:00", "meta": {"OBJECT_NAME": "INTELSAT 31 (IS-31)", "OBJECT_ID": "2016-035A", "EPOCH": "2025-12-23T19:31:44.703840", "MEAN_MOTION": 1.00269658, "ECCENTRICITY": 0.0001926, "INCLINATION": 0.0283, "RA_OF_ASC_NODE": 262.055, "ARG_OF_PERICENTER": 303.365, "MEAN_ANOMALY": 85.0534, "EPHEMERIS_TYPE": 0, "CLASSIFICATION_TYPE": "U", "NORAD_CAT_ID": 41581, "ELEMENT_SET_NO": 999, "REV_AT_EPOCH": 3492, "BSTAR": 0, "MEAN_MOTION_DOT": -1.29e-06, "MEAN_MOTION_DDOT": 0}, "tle": {"line1": "1 41581U 16035A   25357.81371185 -.00000129  00000+0  00000+0 0  9991", "line2": "2 41581   0.0283 262.0550 0001926 303.3650  85.0534  1.00269658 34922"}}, "geometry": {"type": "Point", "coordinates": [-138.59829185108762, -0.016512977989487077]}}, {"type": "Feature", "properties": {"norad_id": 41747, "name": "INTELSAT 36 (IS-36)", "group": "intelsat", "lat": 0.006648777035909295, "lon": 24.972308609180647, "alt_km": 35783.76967604567, "timestamp": "2025-12-25T14:48:24.469331+00:00", "meta": {"OBJECT_NAME": "INTELSAT 36 (IS-36)", "OBJECT_ID": "2016-053A", "EPOCH": "2025-12-24T23:41:40.191072", "MEAN_MOTION": 1.00271078, "ECCENTRICITY": 0.00011962, "INCLINATION": 0.0114, "RA_OF_ASC_NODE": 13.9545, "ARG_OF_PERICENTER": 310.844, "MEAN_ANOMALY": 192.8649, "EPHEMERIS_TYPE": 0, "CLASSIFICATION_TYPE": "U", "NORAD_CAT_ID": 41747, "ELEMENT_SET_NO": 999, "REV_AT_EPOCH": 3420, "BSTAR": 0, "MEAN_MOTION_DOT": -3e-08, "MEAN_MOTION_DDOT": 0}, "tle": {"line1": "1 41747U 16053A   25358.98727073 -.00000003  00000+0  00000+0 0  9996", "line2": "2 41747   0.0114  13.9545 0001196 310.8440 192.8649  1.00271078 34209"}}, "geometry": {"type": "Point", "coordinates": [24.972308609180647, 0.006648777035909295]}}, {"type": "Feature", "properties": {"norad_id": 41945, "name": "INTELSAT 32E (IS-32E)", "group": "intelsat", "lat": -0.024905904693406367, "lon": -86.71680688525191, "alt_km": 35787.79038525143, "timestamp": "2025-12-25T14:48:24.469341+00:00", "meta": {"OBJECT_NAME": "INTELSAT 32E (IS-32E)", "OBJECT_ID": "2017-007B", "EPOCH": "2025-12-25T00:22:38.801568", "MEAN_MOTION": 1.00269238, "ECCENTRICITY": 5.811e-05, "INCLINATION": 0.0247, "RA_OF_ASC_NODE": 70.7828, "ARG_OF_PERICENTER": 314.6523, "MEAN_ANOMALY": 30.8337, "EPHEMERIS_TYPE": 0, "CLASSIFICATION_TYPE": "U", "NORAD_CAT_ID": 41945, "ELEMENT_SET_NO": 999, "REV_AT_EPOCH": 3247, "BSTAR": 0, "MEAN_MOTION_DOT": -2.48e-06, "MEAN_MOTION_DDOT": 0}, "tle": {"line1": "1 41945U 17007B   25359.01572687 -.00000248  00000+0  00000+0 0  9991", "line2": "2 41945   0.0247  70.7828 0000581 314.6523  30.8337  1.00269238 32479"}}, "geometry": {"type": "Point", "coordinates": [-86.71680688525191, -0.024905904693406367]}}, {"type": "Feature", "properties": {"norad_id": 42818, "name": "INTELSAT 35E (IS-35E)", "group": "intelsat", "lat": -0.03831060940452264, "lon": -78.04788425813722, "alt_km": 35778.46685116169, "timestamp": "2025-12-25T14:48:24.469351+00:00", "meta": {"OBJECT_NAME": "INTELSAT 35E (IS-35E)", "OBJECT_ID": "2017-041A", "EPOCH": "2025-12-24T19:47:02.663232", "MEAN_MOTION": 1.00269135, "ECCENTRICITY": 0.0001994, "INCLINATION": 0.0182, "RA_OF_ASC_NODE": 26.5073, "ARG_OF_PERICENTER": 252.5399, "MEAN_ANOMALY": 76.7961, "EPHEMERIS_TYPE": 0, "CLASSIFICATION_TYPE": "U", "NORAD_CAT_ID": 42818, "ELEMENT_SET_NO": 999, "REV_AT_EPOCH": 3106, "BSTAR": 0, "MEAN_MOTION_DOT": -2.17e-06, "MEAN_MOTION_DDOT": 0}, "tle": {"line1": "1 42818U 17041A   25358.82433638 -.00000217  00000+0  00000+0 0  9995", "line2": "2 42818   0.0182  26.5073 0001994 252.5399  76.7961  1.00269135 31060"}}, "geometry": {"type": "Point", "coordinates": [-78.04788425813722, -0.03831060940452264]}}, {"type": "Feature", "properties": {"norad_id": 42950, "name": "INTELSAT 37E (IS-37E)", "group": "intelsat", "lat": -0.04052955123939275, "lon": -61.50876486093655, "alt_km": 35775.88729958319, "timestamp": "2025-12-25T14:48:24.469361+00:00", "meta": {"OBJECT_NAME": "INTELSAT 37E (IS-37E)", "OBJECT_ID": "2017-059A", "EPOCH": "2025-12-24T23:17:12.534144", "MEAN_MOTION": 1.00269836, "ECCENTRICITY": 0.00031181, "INCLINATION": 0.0204, "RA_OF_ASC_NODE": 23.5202, "ARG_OF_PERICENTER": 239.519, "MEAN_ANOMALY": 162.0054, "EPHEMERIS_TYPE": 0, "CLASSIFICATION_TYPE": "U", "NORAD_CAT_ID": 42950, "ELEMENT_SET_NO": 999, "REV_AT_EPOCH": 3031, "BSTAR": 0, "MEAN_MOTION_DOT": 0, "MEAN_MOTION_DDOT": 0}, "tle": {"line1": "1 42950U 17059A   25358.97028396  .00000000  00000+0  00000+0 0  9997", "line2": "2 42950   0.0204  23.5202 0003118 239.5190 162.0054  1.00269836 30314"}}, "geometry": {"type": "Point", "coordinates": [-61.50876486093655, -0.04052955123939275]}}, {"type": "Feature", "properties": {"norad_id": 43632, "name": "AZERSPACE 2 (IS-38)", "group": "intelsat", "lat": -0.00745915407209071, "lon": 1.5873259717781372, "alt_km": 35785.728073399405, "timestamp": "2025-12-25T14:48:24.469371+00:00", "meta": {"OBJECT_NAME": "AZERSPACE 2 (IS-38)", "OBJECT_ID": "2018-074A", "EPOCH": "2025-12-25T03:17:38.614272", "MEAN_MOTION": 1.00270963, "ECCENTRICITY": 0.00013323, "INCLINATION": 0.018, "RA_OF_ASC_NODE": 13.2849, "ARG_OF_PERICENTER": 263.6631, "MEAN_ANOMALY": 271.4681, "EPHEMERIS_TYPE": 0, "CLASSIFICATION_TYPE": "U", "NORAD_CAT_ID": 43632, "ELEMENT_SET_NO": 999, "REV_AT_EPOCH": 2670, "BSTAR": 0, "MEAN_MOTION_DOT": 1.58e-06, "MEAN_MOTION_DDOT": 0}, "tle": {"line1": "1 43632U 18074A   25359.13725248  .00000158  00000+0  00000+0 0  9996", "line2": "2 43632   0.0180  13.2849 0001332 263.6631 271.4681  1.00270963 26704"}}, "geometry": {"type": "Point", "coordinates": [1.5873259717781372, -0.00745915407209071]}}, {"type": "Feature", "properties": {"norad_id": 43633, "name": "HORIZONS-3E", "group": "intelsat", "lat": -0.007664397293589753, "lon": 125.45499798294935, "alt_km": 35789.47963162569, "timestamp": "2025-12-25T14:48:24.469391+00:00", "meta": {"OBJECT_NAME": "HORIZONS-3E", "OBJECT_ID": "2018-074B", "EPOCH": "2025-12-24T12:50:38.701824", "MEAN_MOTION": 1.0026891, "ECCENTRICITY": 6.503e-05, "INCLINATION": 0.0125, "RA_OF_ASC_NODE": 213.101, "ARG_OF_PERICENTER": 109.3498, "MEAN_ANOMALY": 132.5125, "EPHEMERIS_TYPE": 0, "CLASSIFICATION_TYPE": "U", "NORAD_CAT_ID": 43633, "ELEMENT_SET_NO": 999, "REV_AT_EPOCH": 2659, "BSTAR": 0, "MEAN_MOTION_DOT": 0, "MEAN_MOTION_DDOT": 0}, "tle": {"line1": "1 43633U 18074B   25358.53517016  .00000000  00000+0  00000+0 0  9998", "line2": "2 43633   0.0125 213.1010 0000650 109.3498 132.5125  1.00268910 26590"}}, "geometry": {"type": "Point", "coordinates": [125.45499798294935, -0.007664397293589753]}}, {"type": "Feature", "properties": {"norad_id": 44333, "name": "AT&T T-16", "group": "intelsat", "lat": 0.008835199665954373, "lon": -144.40788128527853, "alt_km": 35786.115840557024, "timestamp": "2025-12-25T14:48:24.469402+00:00", "meta": {"OBJECT_NAME": "AT&T T-16", "OBJECT_ID": "2019-034A", "EPOCH": "2025-12-23T22:55:25.672800", "MEAN_MOTION": 1.00268558, "ECCENTRICITY": 6.686e-05, "INCLINATION": 0.0228, "RA_OF_ASC_NODE": 67.9518, "ARG_OF_PERICENTER": 76.4171, "MEAN_ANOMALY": 191.3588, "EPHEMERIS_TYPE": 0, "CLASSIFICATION_TYPE": "U", "NORAD_CAT_ID": 44333, "ELEMENT_SET_NO": 999, "REV_AT_EPOCH": 2387, "BSTAR": 0, "MEAN_MOTION_DOT": -9.4e-07, "MEAN_MOTION_DDOT": 0}, "tle": {"line1": "1 44333U 19034A   25357.95515825 -.00000094  00000+0  00000+0 0  9998", "line2": "2 44333   0.0228  67.9518 0000668  76.4171 191.3588  1.00268558 23873"}}, "geometry": {"type": "Point", "coordinates": [-144.40788128527853, 0.008835199665954373]}}]}